1 42888U 17042BR  19287.88281710  .00004989  00000-0  12329-3 0  9996
2 42888  96.9209 164.5826 0012164 130.3179 229.9134 15.40830780126170
1 42888U 17042BR  19288.46730145  .00004534  00000-0  11220-3 0  9997
2 42888  96.9207 165.1362 0012220 128.3662 231.8686 15.40835679126263
1 42888U 17042BR  19288.72707212  .00004812  00000-0  11896-3 0  9993
2 42888  96.9206 165.3823 0012242 127.5378 232.6984 15.40838601126308
1 42888U 17042BR  19289.70120680  .00005084  00000-0  12553-3 0  9993
2 42888  96.9203 166.3052 0012310 124.4935 235.7477 15.40848726126457
1 42888U 17042BR  19289.89603334  .00004706  00000-0  11632-3 0  9992
2 42888  96.9203 166.4897 0012326 123.8880 236.3542 15.40849473126487
1 42888U 17042BR  19290.74027758  .00004732  00000-0  11694-3 0  9995
2 42888  96.9201 167.2895 0012387 121.2132 239.0332 15.40857912126610
1 42888U 17042BR  19290.87016086  .00004805  00000-0  11870-3 0  9998
2 42888  96.9201 167.4125 0012401 120.8079 239.4391 15.40859322126638
1 42888U 17042BR  19291.84428250  .00004971  00000-0  12268-3 0  9992
2 42888  96.9198 168.3354 0012480 117.7102 242.5414 15.40869052126784
1 42888U 17042BR  19292.68851641  .00004604  00000-0  11373-3 0  9998
2 42888  96.9198 169.1352 0012513 115.0770 245.1777 15.40876500126912
1 42888U 17042BR  19293.07816087  .00004940  00000-0  12187-3 0  9994
2 42888  96.9198 169.5044 0012542 113.8687 246.3876 15.40881393126974
1 42888U 17042BR  19293.72756609  .00005181  00000-0  12769-3 0  9993
2 42888  96.9198 170.1196 0012583 111.7855 248.4733 15.40888759127079
1 42888U 17042BR  19294.11720808  .00005210  00000-0  12838-3 0  9999
2 42888  96.9199 170.4887 0012613 110.5197 249.7405 15.40892823127134
1 42888U 17042BR  19294.70166882  .00005445  00000-0  13406-3 0  9992
2 42888  96.9199 171.0424 0012634 108.6761 251.5859 15.40899393127229
1 42888U 17042BR  19295.15624773  .00005528  00000-0  13605-3 0  9993
2 42888  96.9199 171.4730 0012644 107.2740 252.9892 15.40904469127296
1 42888U 17042BR  19295.67576547  .00004595  00000-0  11340-3 0  9992
2 42888  96.9199 171.9651 0012669 105.6593 254.6054 15.40907293127374
1 42888U 17042BR  19296.45503838  .00004505  00000-0  11118-3 0  9996
2 42888  96.9200 172.7033 0012710 103.3343 256.9323 15.40914518127490
1 42888U 17042BR  19296.90961314  .00004981  00000-0  12272-3 0  9993
2 42888  96.9200 173.1340 0012737 101.8522 258.4155 15.40919454127569
1 42888U 17042BR  19297.62394185  .00005651  00000-0  13892-3 0  9993
2 42888  96.9198 173.8107 0012753  99.6347 260.6343 15.40927495127670
1 42888U 17042BR  19297.88369591  .00007082  00000-0  17357-3 0  9994
2 42888  96.9198 174.0568 0012764  98.8463 261.4231 15.40933865127714
1 42888U 17042BR  19298.72789279  .00010118  00000-0  24696-3 0  9995
2 42888  96.9198 174.8564 0012793  96.0593 264.2113 15.40950517127841
1 42888U 17042BR  19299.63701926  .00008940  00000-0  21836-3 0  9992
2 42888  96.9197 175.7175 0012799  93.2834 266.9879 15.40963567127983
1 42888U 17042BR  19300.15651457  .00009758  00000-0  23804-3 0  9990
2 42888  96.9196 176.2097 0012817  91.7501 268.5214 15.40975149128066
1 42888U 17042BR  19300.61107077  .00008852  00000-0  21610-3 0  9992
2 42888  96.9193 176.6402 0012820  90.3913 269.8804 15.40981837128131
1 42888U 17042BR  19301.19549607  .00008560  00000-0  20896-3 0  9996
2 42888  96.9190 177.1938 0012815  88.6328 271.6387 15.40992744128228
1 42888U 17042BR  19301.71498287  .00007448  00000-0  18203-3 0  9994
2 42888  96.9188 177.6859 0012800  86.9934 273.2778 15.40999504128302
1 42888U 17042BR  19302.62407870  .00006492  00000-0  15885-3 0  9994
2 42888  96.9184 178.5471 0012840  84.1486 276.1225 15.41011522128444
1 42888U 17042BR  19303.72797111  .00006294  00000-0  15400-3 0  9999
2 42888  96.9180 179.5929 0012809  80.7878 279.4818 15.41025902128611
1 42888U 17042BR  19304.70198372  .00006763  00000-0  16526-3 0  9993
2 42888  96.9178 180.5157 0012788  77.7420 282.5259 15.41041173128766
1 42888U 17042BR  19305.15651974  .00007249  00000-0  17695-3 0  9993
2 42888  96.9178 180.9464 0012786  76.4064 283.8607 15.41048838128833
1 42888U 17042BR  19305.61105404  .00006531  00000-0  15958-3 0  9999
2 42888  96.9176 181.3769 0012776  75.0203 285.2458 15.41054088128905
1 42888U 17042BR  19306.32531850  .00005358  00000-0  13123-3 0  9994
2 42888  96.9176 182.0536 0012743  72.8041 287.4601 15.41062068129018
1 42888U 17042BR  19306.90971511  .00005210  00000-0  12765-3 0  9998
2 42888  96.9175 182.6071 0012743  71.0617 289.2011 15.41067578129103
1 42888U 17042BR  19307.36424358  .00005338  00000-0  13070-3 0  9992
2 42888  96.9175 183.0377 0012727  69.6532 290.6082 15.41072989129171
1 42888U 17042BR  19307.88370381  .00004857  00000-0  11908-3 0  9998
2 42888  96.9175 183.5298 0012718  68.0029 292.2569 15.41076894129258
1 42888U 17042BR  19308.46809432  .00004869  00000-0  11936-3 0  9991
2 42888  96.9178 184.0836 0012696  66.0415 294.2161 15.41082556129349
1 42888U 17042BR  19308.85768659  .00005034  00000-0  12333-3 0  9996
2 42888  96.9179 184.4526 0012668  64.8468 295.4092 15.41086812129405
1 42888U 17042BR  19309.63686849  .00005243  00000-0  12832-3 0  9999
2 42888  96.9179 185.1908 0012616  62.4172 297.8356 15.41094764129523
1 42888U 17042BR  19309.89659483  .00005517  00000-0  13492-3 0  9998
2 42888  96.9179 185.4368 0012600  61.6449 298.6068 15.41097917129563
1 42888U 17042BR  19310.67577134  .00005346  00000-0  13078-3 0  9998
2 42888  96.9178 186.1749 0012555  59.2194 301.0288 15.41105356129685
1 42888U 17042BR  19311.64973599  .00005411  00000-0  13231-3 0  9995
2 42888  96.9179 187.0975 0012499  56.2327 304.0109 15.41115405129837
1 42888U 17042BR  19313.07820541  .00005305  00000-0  12969-3 0  9991
2 42888  96.9178 188.4506 0012411  51.7908 308.4455 15.41130568130055
1 42888U 17042BR  19313.79243498  .00005194  00000-0  12698-3 0  9995
2 42888  96.9177 189.1271 0012375  49.4805 310.7519 15.41137753130162
1 42888U 17042BR  19314.18201365  .00005169  00000-0  12636-3 0  9990
2 42888  96.9177 189.4962 0012350  48.1295 312.1005 15.41141390130229
1 42888U 17042BR  19314.96116807  .00005455  00000-0  13323-3 0  9994
2 42888  96.9174 190.2342 0012284  45.6256 314.5996 15.41149440130345
1 42888U 17042BR  19315.41567308  .00005092  00000-0  12447-3 0  9994
2 42888  96.9173 190.6648 0012250  44.1148 316.1075 15.41152858130415
1 42888U 17042BR  19315.87017581  .00006252  00000-0  15235-3 0  9994
2 42888  96.9172 191.0953 0012197  42.7207 317.4987 15.41160498130480
1 42888U 17042BR  19316.45453484  .00006358  00000-0  15487-3 0  9991
2 42888  96.9170 191.6489 0012144  40.9655 319.2502 15.41166382130578
1 42888U 17042BR  19316.90903361  .00007239  00000-0  17603-3 0  9996
2 42888  96.9168 192.0794 0012101  39.4891 320.7236 15.41174040130646
1 42888U 17042BR  19317.42845890  .00005969  00000-0  14548-3 0  9999
2 42888  96.9167 192.5715 0012059  37.8164 322.3929 15.41178640130726
1 42888U 17042BR  19318.14266495  .00005724  00000-0  13955-3 0  9997
2 42888  96.9164 193.2481 0011992  35.4748 324.7295 15.41187875130832
1 42888U 17042BR  19318.85686782  .00005067  00000-0  12371-3 0  9991
2 42888  96.9162 193.9246 0011939  33.1234 327.0759 15.41194632130944
1 42888U 17042BR  19320.86960521  .00005738  00000-0  13977-3 0  9999
2 42888  96.9160 195.8314 0011697  26.4432 333.7411 15.41215372131254
1 42888U 17042BR  19321.38901717  .00005498  00000-0  13399-3 0  9990
2 42888  96.9159 196.3234 0011650  24.8376 335.3430 15.41219732131339
1 42888U 17042BR  19321.84350087  .00005825  00000-0  14182-3 0  9994
2 42888  96.9159 196.7540 0011595  23.3494 336.8278 15.41225206131403
1 42888U 17042BR  19322.81739028  .00005155  00000-0  12569-3 0  9991
2 42888  96.9159 197.6766 0011490  20.0225 340.1472 15.41233699131558
1 42888U 17042BR  19323.85619898  .00005372  00000-0  13087-3 0  9995
2 42888  96.9161 198.6607 0011389  16.4901 343.6715 15.41244552131719
1 42888U 17042BR  19324.89500149  .00005866  00000-0  14268-3 0  9998
2 42888  96.9161 199.6448 0011248  12.8820 347.2713 15.41255031131876
1 42888U 17042BR  19325.15470086  .00006362  00000-0  15457-3 0  9997
2 42888  96.9161 199.8908 0011213  11.9866 348.1647 15.41258805131914
1 42888U 17042BR  19325.67409854  .00006340  00000-0  15401-3 0  9994
2 42888  96.9161 200.3828 0011143  10.1595 349.9876 15.41263705131991
1 42888U 17042BR  19326.45319079  .00007771  00000-0  18828-3 0  9995
2 42888  96.9162 201.1208 0011030   7.5357 352.6054 15.41274280132118
1 42888U 17042BR  19326.71288740  .00006988  00000-0  16950-3 0  9997
2 42888  96.9162 201.3668 0011003   6.6025 353.5366 15.41275848132153
1 42888U 17042BR  19327.62181787  .00008118  00000-0  19648-3 0  9995
2 42888  96.9162 202.2278 0010911   3.4444 356.6877 15.41291818132298
1 42888U 17042BR  19328.79042799  .00009120  00000-0  22034-3 0  9990
2 42888  96.9160 203.3349 0010752 359.3109   0.8122 15.41314582132476
1 42888U 17042BR  19329.69933672  .00007292  00000-0  17650-3 0  9995
2 42888  96.9158 204.1960 0010632 356.0513   4.0649 15.41327906132611
1 42888U 17042BR  19330.34855267  .00006851  00000-0  16590-3 0  9994
2 42888  96.9157 204.8110 0010538 353.7228   6.3886 15.41336469132719
1 42888U 17042BR  19330.67315982  .00005982  00000-0  14510-3 0  9999
2 42888  96.9155 205.1186 0010490 352.5103   7.5987 15.41339129132766
1 42888U 17042BR  19331.38729191  .00005561  00000-0  13500-3 0  9990
2 42888  96.9151 205.7950 0010395 349.8692  10.2345 15.41347204132877
1 42888U 17042BR  19331.77681760  .00005571  00000-0  13523-3 0  9998
2 42888  96.9150 206.1641 0010348 348.4718  11.6291 15.41351304132938
1 42888U 17042BR  19332.68570628  .00005080  00000-0  12343-3 0  9993
2 42888  96.9147 207.0251 0010255 345.1349  14.9596 15.41360085133078
1 42888U 17042BR  19332.81554703  .00005207  00000-0  12647-3 0  9992
2 42888  96.9147 207.1481 0010242 344.6545  15.4391 15.41361588133092
1 42888U 17042BR  19333.78934967  .00004937  00000-0  11997-3 0  9999
2 42888  96.9146 208.0707 0010105 340.9266  19.1602 15.41370909133249
